STARLINK-35196          
1 66007U 25232C   25318.86570198  .00057414  00000+0  14324-2 0  9992
2 66007  53.1582 278.8106 0001818  77.5407 282.5801 15.39665879  5825
STARLINK-35236          
1 66008U 25232D   25318.83334491 -.01963583  00000+0 -49222-1 0  9994
2 66008  53.1594 278.6098 0001183 107.2072 249.3024 15.42927279  5053
STARLINK-35276          
1 66009U 25232E   25318.87499502  .00070303  00000+0  17496-2 0  9999
2 66009  53.1586 278.8670 0000907 123.9827 236.1264 15.39651926  5812
STARLINK-35297          
1 66010U 25232F   25318.83334491  .00084549  00000+0  21046-2 0  9995
2 66010  53.1595 278.7035 0001374  97.0986 212.3597 15.39558144  5053
STARLINK-35256          
1 66011U 25232G   25318.60141015  .00050910  00000+0  12740-2 0  9995
2 66011  53.1584 280.0004 0002774  81.5966 278.5353 15.39625064  5796
STARLINK-35293          
1 66012U 25232H   25318.83334491  .00085737  00000+0  21335-2 0  9998
2 66012  53.1583 278.8561 0001266  94.6225 137.5601 15.39560387  5052
STARLINK-35307          
1 66013U 25232J   25318.87963149  .00105058  00000+0  25900-2 0  9992
2 66013  53.1619 278.8999 0001747 114.8514 245.2672 15.39741724  5835
STARLINK-35395          
1 66014U 25232K   25318.87036662  .00056373  00000+0  14079-2 0  9994
2 66014  53.1595 278.8375 0001283  76.4425 283.6722 15.39641531  5833
STARLINK-34622          
1 66015U 25232L   25318.31196159  .00109839  00000+0  19562-2 0  9990
2 66015  53.1590 281.0372 0000891  20.0740 340.0304 15.49295308  5743
STARLINK-35243          
1 66016U 25232M   25318.83334491 -.02023067  00000+0 -48589-1 0  9993
2 66016  53.1595 278.5651 0001018 107.2262 270.7280 15.44288218  5052
STARLINK-35398          
1 66017U 25232N   25318.87996231  .00050196  00000+0  12540-2 0  9992
2 66017  53.1601 278.8989 0002280  78.1322 281.9939 15.39683342  5835
STARLINK-35376          
1 66018U 25232P   25318.83334491  .00055682  00000+0  13913-2 0  9993
2 66018  53.1586 278.7536 0001530  96.1461 187.4359 15.39633594  5050
