CCSDS_OMM_VERS = 2.0
CREATION_DATE  = 
ORIGINATOR     = 

OBJECT_NAME    = STARLINK-35196
OBJECT_ID      = 2025-232C
CENTER_NAME    = EARTH
REF_FRAME      = TEME
TIME_SYSTEM    = UTC
MEAN_ELEMENT_THEORY = SGP/SGP4

EPOCH          = 2025-11-14T20:46:36.651072
MEAN_MOTION    = 15.39665879
ECCENTRICITY   = .0001818
INCLINATION    = 53.1582
RA_OF_ASC_NODE = 278.8106
ARG_OF_PERICENTER = 77.5407
MEAN_ANOMALY   = 282.5801

EPHEMERIS_TYPE = 0
CLASSIFICATION_TYPE = U
NORAD_CAT_ID   = 66007
ELEMENT_SET_NO = 999
REV_AT_EPOCH   = 582
BSTAR          = .14324E-2
MEAN_MOTION_DOT = .57414E-3
MEAN_MOTION_DDOT = 0

CCSDS_OMM_VERS = 2.0
CREATION_DATE  = 
ORIGINATOR     = 

OBJECT_NAME    = STARLINK-35236
OBJECT_ID      = 2025-232D
CENTER_NAME    = EARTH
REF_FRAME      = TEME
TIME_SYSTEM    = UTC
MEAN_ELEMENT_THEORY = SGP/SGP4

EPOCH          = 2025-11-14T20:00:01.000224
MEAN_MOTION    = 15.42927279
ECCENTRICITY   = .0001183
INCLINATION    = 53.1594
RA_OF_ASC_NODE = 278.6098
ARG_OF_PERICENTER = 107.2072
MEAN_ANOMALY   = 249.3024

EPHEMERIS_TYPE = 0
CLASSIFICATION_TYPE = U
NORAD_CAT_ID   = 66008
ELEMENT_SET_NO = 999
REV_AT_EPOCH   = 505
BSTAR          = -.49222E-1
MEAN_MOTION_DOT = -.1963583E-1
MEAN_MOTION_DDOT = 0

CCSDS_OMM_VERS = 2.0
CREATION_DATE  = 
ORIGINATOR     = 

OBJECT_NAME    = STARLINK-35276
OBJECT_ID      = 2025-232E
CENTER_NAME    = EARTH
REF_FRAME      = TEME
TIME_SYSTEM    = UTC
MEAN_ELEMENT_THEORY = SGP/SGP4

EPOCH          = 2025-11-14T20:59:59.569728
MEAN_MOTION    = 15.39651926
ECCENTRICITY   = .0000907
INCLINATION    = 53.1586
RA_OF_ASC_NODE = 278.8670
ARG_OF_PERICENTER = 123.9827
MEAN_ANOMALY   = 236.1264

EPHEMERIS_TYPE = 0
CLASSIFICATION_TYPE = U
NORAD_CAT_ID   = 66009
ELEMENT_SET_NO = 999
REV_AT_EPOCH   = 581
BSTAR          = .17496E-2
MEAN_MOTION_DOT = .70303E-3
MEAN_MOTION_DDOT = 0

CCSDS_OMM_VERS = 2.0
CREATION_DATE  = 
ORIGINATOR     = 

OBJECT_NAME    = STARLINK-35297
OBJECT_ID      = 2025-232F
CENTER_NAME    = EARTH
REF_FRAME      = TEME
TIME_SYSTEM    = UTC
MEAN_ELEMENT_THEORY = SGP/SGP4

EPOCH          = 2025-11-14T20:00:01.000224
MEAN_MOTION    = 15.39558144
ECCENTRICITY   = .0001374
INCLINATION    = 53.1595
RA_OF_ASC_NODE = 278.7035
ARG_OF_PERICENTER = 97.0986
MEAN_ANOMALY   = 212.3597

EPHEMERIS_TYPE = 0
CLASSIFICATION_TYPE = U
NORAD_CAT_ID   = 66010
ELEMENT_SET_NO = 999
REV_AT_EPOCH   = 505
BSTAR          = .21046E-2
MEAN_MOTION_DOT = .84549E-3
MEAN_MOTION_DDOT = 0

CCSDS_OMM_VERS = 2.0
CREATION_DATE  = 
ORIGINATOR     = 

OBJECT_NAME    = STARLINK-35256
OBJECT_ID      = 2025-232G
CENTER_NAME    = EARTH
REF_FRAME      = TEME
TIME_SYSTEM    = UTC
MEAN_ELEMENT_THEORY = SGP/SGP4

EPOCH          = 2025-11-14T14:26:01.836960
MEAN_MOTION    = 15.39625064
ECCENTRICITY   = .0002774
INCLINATION    = 53.1584
RA_OF_ASC_NODE = 280.0004
ARG_OF_PERICENTER = 81.5966
MEAN_ANOMALY   = 278.5353

EPHEMERIS_TYPE = 0
CLASSIFICATION_TYPE = U
NORAD_CAT_ID   = 66011
ELEMENT_SET_NO = 999
REV_AT_EPOCH   = 579
BSTAR          = .1274E-2
MEAN_MOTION_DOT = .5091E-3
MEAN_MOTION_DDOT = 0

CCSDS_OMM_VERS = 2.0
CREATION_DATE  = 
ORIGINATOR     = 

OBJECT_NAME    = STARLINK-35293
OBJECT_ID      = 2025-232H
CENTER_NAME    = EARTH
REF_FRAME      = TEME
TIME_SYSTEM    = UTC
MEAN_ELEMENT_THEORY = SGP/SGP4

EPOCH          = 2025-11-14T20:00:01.000224
MEAN_MOTION    = 15.39560387
ECCENTRICITY   = .0001266
INCLINATION    = 53.1583
RA_OF_ASC_NODE = 278.8561
ARG_OF_PERICENTER = 94.6225
MEAN_ANOMALY   = 137.5601

EPHEMERIS_TYPE = 0
CLASSIFICATION_TYPE = U
NORAD_CAT_ID   = 66012
ELEMENT_SET_NO = 999
REV_AT_EPOCH   = 505
BSTAR          = .21335E-2
MEAN_MOTION_DOT = .85737E-3
MEAN_MOTION_DDOT = 0

CCSDS_OMM_VERS = 2.0
CREATION_DATE  = 
ORIGINATOR     = 

OBJECT_NAME    = STARLINK-35307
OBJECT_ID      = 2025-232J
CENTER_NAME    = EARTH
REF_FRAME      = TEME
TIME_SYSTEM    = UTC
MEAN_ELEMENT_THEORY = SGP/SGP4

EPOCH          = 2025-11-14T21:06:40.160736
MEAN_MOTION    = 15.39741724
ECCENTRICITY   = .0001747
INCLINATION    = 53.1619
RA_OF_ASC_NODE = 278.8999
ARG_OF_PERICENTER = 114.8514
MEAN_ANOMALY   = 245.2672

EPHEMERIS_TYPE = 0
CLASSIFICATION_TYPE = U
NORAD_CAT_ID   = 66013
ELEMENT_SET_NO = 999
REV_AT_EPOCH   = 583
BSTAR          = .259E-2
MEAN_MOTION_DOT = .105058E-2
MEAN_MOTION_DDOT = 0

CCSDS_OMM_VERS = 2.0
CREATION_DATE  = 
ORIGINATOR     = 

OBJECT_NAME    = STARLINK-35395
OBJECT_ID      = 2025-232K
CENTER_NAME    = EARTH
REF_FRAME      = TEME
TIME_SYSTEM    = UTC
MEAN_ELEMENT_THEORY = SGP/SGP4

EPOCH          = 2025-11-14T20:53:19.675968
MEAN_MOTION    = 15.39641531
ECCENTRICITY   = .0001283
INCLINATION    = 53.1595
RA_OF_ASC_NODE = 278.8375
ARG_OF_PERICENTER = 76.4425
MEAN_ANOMALY   = 283.6722

EPHEMERIS_TYPE = 0
CLASSIFICATION_TYPE = U
NORAD_CAT_ID   = 66014
ELEMENT_SET_NO = 999
REV_AT_EPOCH   = 583
BSTAR          = .14079E-2
MEAN_MOTION_DOT = .56373E-3
MEAN_MOTION_DDOT = 0

CCSDS_OMM_VERS = 2.0
CREATION_DATE  = 
ORIGINATOR     = 

OBJECT_NAME    = STARLINK-34622
OBJECT_ID      = 2025-232L
CENTER_NAME    = EARTH
REF_FRAME      = TEME
TIME_SYSTEM    = UTC
MEAN_ELEMENT_THEORY = SGP/SGP4

EPOCH          = 2025-11-14T07:29:13.481376
MEAN_MOTION    = 15.49295308
ECCENTRICITY   = .0000891
INCLINATION    = 53.1590
RA_OF_ASC_NODE = 281.0372
ARG_OF_PERICENTER = 20.0740
MEAN_ANOMALY   = 340.0304

EPHEMERIS_TYPE = 0
CLASSIFICATION_TYPE = U
NORAD_CAT_ID   = 66015
ELEMENT_SET_NO = 999
REV_AT_EPOCH   = 574
BSTAR          = .19562E-2
MEAN_MOTION_DOT = .109839E-2
MEAN_MOTION_DDOT = 0

CCSDS_OMM_VERS = 2.0
CREATION_DATE  = 
ORIGINATOR     = 

OBJECT_NAME    = STARLINK-35243
OBJECT_ID      = 2025-232M
CENTER_NAME    = EARTH
REF_FRAME      = TEME
TIME_SYSTEM    = UTC
MEAN_ELEMENT_THEORY = SGP/SGP4

EPOCH          = 2025-11-14T20:00:01.000224
MEAN_MOTION    = 15.44288218
ECCENTRICITY   = .0001018
INCLINATION    = 53.1595
RA_OF_ASC_NODE = 278.5651
ARG_OF_PERICENTER = 107.2262
MEAN_ANOMALY   = 270.7280

EPHEMERIS_TYPE = 0
CLASSIFICATION_TYPE = U
NORAD_CAT_ID   = 66016
ELEMENT_SET_NO = 999
REV_AT_EPOCH   = 505
BSTAR          = -.48589E-1
MEAN_MOTION_DOT = -.2023067E-1
MEAN_MOTION_DDOT = 0

CCSDS_OMM_VERS = 2.0
CREATION_DATE  = 
ORIGINATOR     = 

OBJECT_NAME    = STARLINK-35398
OBJECT_ID      = 2025-232N
CENTER_NAME    = EARTH
REF_FRAME      = TEME
TIME_SYSTEM    = UTC
MEAN_ELEMENT_THEORY = SGP/SGP4

EPOCH          = 2025-11-14T21:07:08.743584
MEAN_MOTION    = 15.39683342
ECCENTRICITY   = .000228
INCLINATION    = 53.1601
RA_OF_ASC_NODE = 278.8989
ARG_OF_PERICENTER = 78.1322
MEAN_ANOMALY   = 281.9939

EPHEMERIS_TYPE = 0
CLASSIFICATION_TYPE = U
NORAD_CAT_ID   = 66017
ELEMENT_SET_NO = 999
REV_AT_EPOCH   = 583
BSTAR          = .1254E-2
MEAN_MOTION_DOT = .50196E-3
MEAN_MOTION_DDOT = 0

CCSDS_OMM_VERS = 2.0
CREATION_DATE  = 
ORIGINATOR     = 

OBJECT_NAME    = STARLINK-35376
OBJECT_ID      = 2025-232P
CENTER_NAME    = EARTH
REF_FRAME      = TEME
TIME_SYSTEM    = UTC
MEAN_ELEMENT_THEORY = SGP/SGP4

EPOCH          = 2025-11-14T20:00:01.000224
MEAN_MOTION    = 15.39633594
ECCENTRICITY   = .000153
INCLINATION    = 53.1586
RA_OF_ASC_NODE = 278.7536
ARG_OF_PERICENTER = 96.1461
MEAN_ANOMALY   = 187.4359

EPHEMERIS_TYPE = 0
CLASSIFICATION_TYPE = U
NORAD_CAT_ID   = 66018
ELEMENT_SET_NO = 999
REV_AT_EPOCH   = 505
BSTAR          = .13913E-2
MEAN_MOTION_DOT = .55682E-3
MEAN_MOTION_DDOT = 0

